OBJECT_NAME,OBJECT_ID,EPOCH,MEAN_MOTION,ECCENTRICITY,INCLINATION,RA_OF_ASC_NODE,ARG_OF_PERICENTER,MEAN_ANOMALY,EPHEMERIS_TYPE,CLASSIFICATION_TYPE,NORAD_CAT_ID,ELEMENT_SET_NO,REV_AT_EPOCH,BSTAR,MEAN_MOTION_DOT,MEAN_MOTION_DDOT
KUIPER-00493,2026-140E,2026-07-08T14:13:30.818784,15.36563449,.00076101,51.8801,295.4324,16.5955,343.5280,0,U,69596,999,452,.47213526E-3,.16774E-3,0
KUIPER-00496,2026-140F,2026-07-08T13:00:28.161504,15.34395093,.00103894,51.8782,295.8314,30.1055,330.0526,0,U,69597,999,451,.49279199E-3,.16343E-3,0
KUIPER-00513,2026-140G,2026-07-08T12:11:26.852352,15.38051973,.00064765,51.8799,295.6205,314.8970,45.1491,0,U,69598,999,451,.56165814E-3,.21039E-3,0
KUIPER-00516,2026-140H,2026-07-08T12:19:53.143392,15.37479445,.00067567,51.8779,295.6514,330.3950,29.6654,0,U,69599,999,451,.33937155E-3,.12305E-3,0
KUIPER-00517,2026-140J,2026-07-08T11:53:43.580256,15.38717662,.00097835,51.8770,295.5324,263.9930,95.9943,0,U,69600,999,451,.61304165E-3,.23538E-3,0
KUIPER-00520,2026-140K,2026-07-08T12:21:28.354464,15.37532936,.00064403,51.8814,295.6676,331.4189,28.6444,0,U,69601,999,451,.36035928E-3,.13114E-3,0
KUIPER-00522,2026-140L,2026-07-08T13:21:33.098976,15.38543313,.00131526,51.8762,295.1926,241.1326,118.8342,0,U,69602,999,452,.54391865E-3,.20737E-3,0
KUIPER-00528,2026-140M,2026-07-08T12:24:24.112800,15.37382673,.00054012,51.8782,295.6710,338.0336,22.0418,0,U,69603,999,451,.3123176E-3,.11252E-3,0
KUIPER-00532,2026-140N,2026-07-08T14:08:59.489952,15.36660586,.0005683,51.8775,295.4050,9.0894,351.0195,0,U,69604,999,452,.4018911E-3,.14256E-3,0
KUIPER-00533,2026-140P,2026-07-08T13:40:01.236864,15.38156982,.00078095,51.8787,295.2771,302.2266,57.7963,0,U,69605,999,452,.36029063E-3,.1339E-3,0
KUIPER-00534,2026-140Q,2026-07-08T13:14:36.701952,15.38605230,.001354,51.8826,295.1688,244.1242,115.8350,0,U,69606,999,452,.59052929E-3,.22604E-3,0
KUIPER-00537,2026-140R,2026-07-08T12:55:18.541056,15.34379351,.00107763,51.8812,295.8173,33.3230,326.8432,0,U,69607,999,451,.42641056E-3,.1408E-3,0
KUIPER-00538,2026-140S,2026-07-08T12:18:25.530336,15.37628236,.00057307,51.8793,295.6505,318.8875,41.1679,0,U,69608,999,451,.59376087E-3,.21956E-3,0
KUIPER-00540,2026-140T,2026-07-08T12:30:48.464064,15.36861629,.00060159,51.8827,295.7108,5.1562,354.9485,0,U,69609,999,451,.45685201E-3,.16372E-3,0
KUIPER-00541,2026-140U,2026-07-08T13:40:23.336256,15.38302367,.00073943,51.8820,295.2876,297.9838,62.0401,0,U,69610,999,452,.41672588E-3,.15628E-3,0
KUIPER-00542,2026-140V,2026-07-08T13:37:58.046880,15.38292828,.00079274,51.8787,295.2681,279.2962,80.7129,0,U,69611,999,452,.43738443E-3,.16421E-3,0
KUIPER-00543,2026-140W,2026-07-08T14:10:13.160640,15.36734060,.00077066,51.8756,295.4067,13.3356,346.7833,0,U,69612,999,452,.66100371E-3,.23796E-3,0
KUIPER-00544,2026-140X,2026-07-08T13:43:37.656768,15.38062112,.000637,51.8783,295.2928,294.1601,65.8720,0,U,69613,999,452,.42618549E-3,.15862E-3,0
KUIPER-00546,2026-140Y,2026-07-08T13:16:04.427328,15.38804269,.00143104,51.8794,295.1720,240.3908,119.5654,0,U,69614,999,452,.52842751E-3,.20319E-3,0
KUIPER-00547,2026-140Z,2026-07-08T13:33:35.566272,15.37781488,.00110007,51.8824,295.2560,264.3328,95.6405,0,U,69615,999,452,.4421369E-3,.16339E-3,0
KUIPER-00549,2026-140AA,2026-07-08T12:25:56.896896,15.37303773,.00083536,51.8792,295.6817,347.4443,12.6335,0,U,69616,999,451,.60288506E-3,.22075E-3,0
KUIPER-00550,2026-140AB,2026-07-08T13:06:43.928064,15.33288057,.00083402,51.8774,295.8589,8.0423,352.0694,0,U,69617,999,451,.49133756E-3,.15714E-3,0
KUIPER-00551,2026-140AC,2026-07-08T11:51:07.989408,15.38140272,.00134403,51.8792,295.5241,260.4636,99.4832,0,U,69618,999,451,.64866385E-3,.24495E-3,0
KUIPER-00554,2026-140AD,2026-07-08T13:31:18.335424,15.37827153,.00108916,51.8782,295.2381,265.2823,94.6920,0,U,69619,999,452,.49456858E-3,.18356E-3,0
KUIPER-00555,2026-140AE,2026-07-08T13:27:26.306496,15.37991211,.00077728,51.8814,295.2250,249.0670,110.9485,0,U,69620,999,452,-.17592731E-2,-.66673E-3,0
KUIPER-00556,2026-140AF,2026-07-08T13:27:58.434336,15.38220208,.0012175,51.8818,295.2277,243.9768,115.9966,0,U,69621,999,452,.62547755E-3,.23652E-3,0
KUIPER-00557,2026-140AG,2026-07-08T13:37:12.038016,15.37453569,.00098659,51.8817,295.2701,272.1075,87.8782,0,U,69622,999,452,.4461086E-3,.16306E-3,0
KUIPER-00560,2026-140AH,2026-07-08T13:30:18.542304,15.38825758,.00086777,51.8796,295.2338,278.1105,81.8898,0,U,69623,999,452,.78270816E-3,.30289E-3,0
KUIPER-00561,2026-140AJ,2026-07-08T12:00:08.438688,15.38612299,.00089943,51.8816,295.5720,284.7174,75.2816,0,U,69624,999,451,.54686605E-3,.20869E-3,0
KUIPER-00564,2026-140AK,2026-07-08T12:00:02.000160,15.37212032,.00093021,51.8812,295.5496,272.8771,96.5428,0,U,69625,999,376,-.55918427E-3,-.21066E-3,0
