KUIPER-00493            
1 69596U 26140E   26189.59271781  .00016774  00000+0  47214-3 0  9999
2 69596  51.8801 295.4324 0007610  16.5955 343.5280 15.36563449  4526
KUIPER-00496            
1 69597U 26140F   26189.54199261  .00016343  00000+0  49279-3 0  9992
2 69597  51.8782 295.8314 0010389  30.1055 330.0526 15.34395093  4517
KUIPER-00513            
1 69598U 26140G   26189.50794968  .00021039  00000+0  56166-3 0  9995
2 69598  51.8799 295.6205 0006476 314.8970  45.1491 15.38051973  4518
KUIPER-00516            
1 69599U 26140H   26189.51380953  .00012305  00000+0  33937-3 0  9999
2 69599  51.8779 295.6514 0006756 330.3950  29.6654 15.37479445  4517
KUIPER-00517            
1 69600U 26140J   26189.49564329  .00023538  00000+0  61304-3 0  9999
2 69600  51.8770 295.5324 0009783 263.9930  95.9943 15.38717662  4515
KUIPER-00520            
1 69601U 26140K   26189.51491151  .00013114  00000+0  36036-3 0  9998
2 69601  51.8814 295.6676 0006440 331.4189  28.6444 15.37532936  4517
KUIPER-00522            
1 69602U 26140L   26189.55663309  .00020737  00000+0  54392-3 0  9993
2 69602  51.8762 295.1926 0013152 241.1326 118.8342 15.38543313  4523
KUIPER-00528            
1 69603U 26140M   26189.51694575  .00011252  00000+0  31232-3 0  9999
2 69603  51.8782 295.6710 0005401 338.0336  22.0418 15.37382673  4515
KUIPER-00532            
1 69604U 26140N   26189.58957743  .00014256  00000+0  40189-3 0  9994
2 69604  51.8775 295.4050 0005683   9.0894 351.0195 15.36660586  4528
KUIPER-00533            
1 69605U 26140P   26189.56945876  .00013390  00000+0  36029-3 0  9993
2 69605  51.8787 295.2771 0007809 302.2266  57.7963 15.38156982  4528
KUIPER-00534            
1 69606U 26140Q   26189.55181368  .00022604  00000+0  59053-3 0  9991
2 69606  51.8826 295.1688 0013540 244.1242 115.8350 15.38605230  4527
KUIPER-00537            
1 69607U 26140R   26189.53840904  .00014080  00000+0  42641-3 0  9992
2 69607  51.8812 295.8173 0010776  33.3230 326.8432 15.34379351  4514
KUIPER-00538            
1 69608U 26140S   26189.51279549  .00021956  00000+0  59376-3 0  9995
2 69608  51.8793 295.6505 0005730 318.8875  41.1679 15.37628236  4512
KUIPER-00540            
1 69609U 26140T   26189.52139426  .00016372  00000+0  45685-3 0  9990
2 69609  51.8827 295.7108 0006015   5.1562 354.9485 15.36861629  4511
KUIPER-00541            
1 69610U 26140U   26189.56971454  .00015628  00000+0  41673-3 0  9997
2 69610  51.8820 295.2876 0007394 297.9838  62.0401 15.38302367  4528
KUIPER-00542            
1 69611U 26140V   26189.56803295  .00016421  00000+0  43738-3 0  9991
2 69611  51.8787 295.2681 0007927 279.2962  80.7129 15.38292828  4522
KUIPER-00543            
1 69612U 26140W   26189.59043010  .00023796  00000+0  66100-3 0  9997
2 69612  51.8756 295.4067 0007706  13.3356 346.7833 15.36734060  4522
KUIPER-00544            
1 69613U 26140X   26189.57196362  .00015862  00000+0  42619-3 0  9999
2 69613  51.8783 295.2928 0006370 294.1601  65.8720 15.38062112  4523
KUIPER-00546            
1 69614U 26140Y   26189.55282902  .00020319  00000+0  52843-3 0  9997
2 69614  51.8794 295.1720 0014310 240.3908 119.5654 15.38804269  4521
KUIPER-00547            
1 69615U 26140Z   26189.56499498  .00016339  00000+0  44214-3 0  9999
2 69615  51.8824 295.2560 0011000 264.3328  95.6405 15.37781488  4528
KUIPER-00549            
1 69616U 26140AA  26189.51801964  .00022075  00000+0  60289-3 0  9994
2 69616  51.8792 295.6817 0008353 347.4443  12.6335 15.37303773  4517
KUIPER-00550            
1 69617U 26140AB  26189.54634176  .00015714  00000+0  49134-3 0  9995
2 69617  51.8774 295.8589 0008340   8.0423 352.0694 15.33288057  4512
KUIPER-00551            
1 69618U 26140AC  26189.49384247  .00024495  00000+0  64866-3 0  9996
2 69618  51.8792 295.5241 0013440 260.4636  99.4832 15.38140272  4519
KUIPER-00554            
1 69619U 26140AD  26189.56340666  .00018356  00000+0  49457-3 0  9990
2 69619  51.8782 295.2381 0010891 265.2823  94.6920 15.37827153  4524
KUIPER-00555            
1 69620U 26140AE  26189.56072114 -.00066673  00000+0 -17593-2 0  9994
2 69620  51.8814 295.2250 0007772 249.0670 110.9485 15.37991211  4526
KUIPER-00556            
1 69621U 26140AF  26189.56109299  .00023652  00000+0  62548-3 0  9999
2 69621  51.8818 295.2277 0012175 243.9768 115.9966 15.38220208  4525
KUIPER-00557            
1 69622U 26140AG  26189.56750044  .00016306  00000+0  44611-3 0  9999
2 69622  51.8817 295.2701 0009865 272.1075  87.8782 15.37453569  4524
KUIPER-00560            
1 69623U 26140AH  26189.56271461  .00030289  00000+0  78271-3 0  9996
2 69623  51.8796 295.2338 0008677 278.1105  81.8898 15.38825758  4523
KUIPER-00561            
1 69624U 26140AJ  26189.50009767  .00020869  00000+0  54687-3 0  9997
2 69624  51.8816 295.5720 0008994 284.7174  75.2816 15.38612299  4516
KUIPER-00564            
1 69625U 26140AK  26189.50002315 -.00021066  00000+0 -55918-3 0  9990
2 69625  51.8812 295.5496 0009302 272.8771  96.5428 15.37212032  3769
